{
  "type": "FeatureCollection",
  "features": [
    {
      "type": "Feature",
      "properties": {
        "norad_id": 60182,
        "name": "ALOS-4 (DAICHI-4)",
        "group": "resource",
        "lat": 37.82322885472895,
        "lon": 87.94377177736887,
        "alt_km": 627.7934336070239,
        "timestamp": "2025-12-25T11:37:44.079607+00:00",
        "meta_object_name": "ALOS-4 (DAICHI-4)",
        "meta_object_id": "2024-123A",
        "meta_epoch": "2025-12-25T04:57:49.756896",
        "meta_mean_motion": 14.7946926,
        "meta_eccentricity": 0.0001379,
        "meta_inclination": 97.9222,
        "meta_ra_of_asc_node": 93.8761,
        "meta_arg_of_pericenter": 101.0176,
        "meta_mean_anomaly": 259.1191,
        "meta_ephemeris_type": 0,
        "meta_classification_type": "U",
        "meta_norad_cat_id": 60182,
        "meta_element_set_no": 999,
        "meta_rev_at_epoch": 8015,
        "meta_bstar": 0.00017183,
        "meta_mean_motion_dot": 1.232e-05,
        "meta_mean_motion_ddot": 0,
        "tle_line1": "1 60182U 24123A   25359.20682589  .00001232  00000+0  17183-3 0  9993",
        "tle_line2": "2 60182  97.9222  93.8761 0001379 101.0176 259.1191 14.79469260 80150"
      },
      "geometry": {
        "type": "Point",
        "coordinates": [
          87.94377177736887,
          37.82322885472895
        ]
      }
    },
    {
      "type": "Feature",
      "properties": {
        "norad_id": 60452,
        "name": "LEGION 3",
        "group": "resource",
        "lat": 33.49282172210986,
        "lon": -76.73203995203747,
        "alt_km": 522.0351273776723,
        "timestamp": "2025-12-25T11:37:44.079617+00:00",
        "meta_object_name": "LEGION 3",
        "meta_object_id": "2024-146A",
        "meta_epoch": "2025-12-25T01:54:49.497120",
        "meta_mean_motion": 15.15883235,
        "meta_eccentricity": 0.0015746,
        "meta_inclination": 45.0002,
        "meta_ra_of_asc_node": 243.9747,
        "meta_arg_of_pericenter": 264.4284,
        "meta_mean_anomaly": 95.4798,
        "meta_ephemeris_type": 0,
        "meta_classification_type": "U",
        "meta_norad_cat_id": 60452,
        "meta_element_set_no": 999,
        "meta_rev_at_epoch": 7560,
        "meta_bstar": 0.00029588,
        "meta_mean_motion_dot": 5.515e-05,
        "meta_mean_motion_ddot": 0,
        "tle_line1": "1 60452U 24146A   25359.07973955  .00005515  00000+0  29588-3 0  9993",
        "tle_line2": "2 60452  45.0002 243.9747 0015746 264.4284  95.4798 15.15883235 75600"
      },
      "geometry": {
        "type": "Point",
        "coordinates": [
          -76.73203995203747,
          33.49282172210986
        ]
      }
    },
    {
      "type": "Feature",
      "properties": {
        "norad_id": 60453,
        "name": "LEGION 4",
        "group": "resource",
        "lat": 33.27001233080979,
        "lon": 14.562096990761942,
        "alt_km": 508.09860024228055,
        "timestamp": "2025-12-25T11:37:44.079628+00:00",
        "meta_object_name": "LEGION 4",
        "meta_object_id": "2024-146B",
        "meta_epoch": "2025-12-25T01:55:00.859584",
        "meta_mean_motion": 15.15954828,
        "meta_eccentricity": 0.0008122,
        "meta_inclination": 45.0396,
        "meta_ra_of_asc_node": 335.7607,
        "meta_arg_of_pericenter": 19.8164,
        "meta_mean_anomaly": 340.303,
        "meta_ephemeris_type": 0,
        "meta_classification_type": "U",
        "meta_norad_cat_id": 60453,
        "meta_element_set_no": 999,
        "meta_rev_at_epoch": 7445,
        "meta_bstar": 0.00034587,
        "meta_mean_motion_dot": 6.492e-05,
        "meta_mean_motion_ddot": 0,
        "tle_line1": "1 60453U 24146B   25359.07987106  .00006492  00000+0  34587-3 0  9997",
        "tle_line2": "2 60453  45.0396 335.7607 0008122  19.8164 340.3030 15.15954828 74451"
      },
      "geometry": {
        "type": "Point",
        "coordinates": [
          14.562096990761942,
          33.27001233080979
        ]
      }
    },
    {
      "type": "Feature",
      "properties": {
        "norad_id": 60989,
        "name": "SENTINEL-2C",
        "group": "resource",
        "lat": 80.62997208196253,
        "lon": -42.22517927478731,
        "alt_km": 780.5819998948955,
        "timestamp": "2025-12-25T11:37:44.079638+00:00",
        "meta_object_name": "SENTINEL-2C",
        "meta_object_id": "2024-157A",
        "meta_epoch": "2025-12-25T04:28:44.329152",
        "meta_mean_motion": 14.30817321,
        "meta_eccentricity": 0.0001388,
        "meta_inclination": 98.5666,
        "meta_ra_of_asc_node": 71.489,
        "meta_arg_of_pericenter": 103.3683,
        "meta_mean_anomaly": 256.7655,
        "meta_ephemeris_type": 0,
        "meta_classification_type": "U",
        "meta_norad_cat_id": 60989,
        "meta_element_set_no": 999,
        "meta_rev_at_epoch": 6810,
        "meta_bstar": 7.5433e-05,
        "meta_mean_motion_dot": 1.54e-06,
        "meta_mean_motion_ddot": 0,
        "tle_line1": "1 60989U 24157A   25359.18662418  .00000154  00000+0  75433-4 0  9996",
        "tle_line2": "2 60989  98.5666  71.4890 0001388 103.3683 256.7655 14.30817321 68108"
      },
      "geometry": {
        "type": "Point",
        "coordinates": [
          -42.22517927478731,
          80.62997208196253
        ]
      }
    },
    {
      "type": "Feature",
      "properties": {
        "norad_id": 61735,
        "name": "IONOSFERA-M 1",
        "group": "resource",
        "lat": -10.921963408161341,
        "lon": -129.06458407564008,
        "alt_km": 820.1666570073239,
        "timestamp": "2025-12-25T11:37:44.079650+00:00",
        "meta_object_name": "IONOSFERA-M 1",
        "meta_object_id": "2024-199A",
        "meta_epoch": "2025-12-25T04:55:45.339168",
        "meta_mean_motion": 14.22716748,
        "meta_eccentricity": 3.43e-05,
        "meta_inclination": 98.7403,
        "meta_ra_of_asc_node": 228.9574,
        "meta_arg_of_pericenter": 5.3507,
        "meta_mean_anomaly": 354.7674,
        "meta_ephemeris_type": 0,
        "meta_classification_type": "U",
        "meta_norad_cat_id": 61735,
        "meta_element_set_no": 999,
        "meta_rev_at_epoch": 10296,
        "meta_bstar": 4.8397e-05,
        "meta_mean_motion_dot": 6.4e-07,
        "meta_mean_motion_ddot": 0,
        "tle_line1": "1 61735U 24199A   25359.20538587  .00000064  00000+0  48397-4 0  9993",
        "tle_line2": "2 61735  98.7403 228.9574 0000343   5.3507 354.7674 14.22716748102968"
      },
      "geometry": {
        "type": "Point",
        "coordinates": [
          -129.06458407564008,
          -10.921963408161341
        ]
      }
    },
    {
      "type": "Feature",
      "properties": {
        "norad_id": 61736,
        "name": "IONOSFERA-M 2",
        "group": "resource",
        "lat": 7.940251117346389,
        "lon": 50.376050880472654,
        "alt_km": 817.7259149835745,
        "timestamp": "2025-12-25T11:37:44.079660+00:00",
        "meta_object_name": "IONOSFERA-M 2",
        "meta_object_id": "2024-199B",
        "meta_epoch": "2025-12-25T04:04:20.936928",
        "meta_mean_motion": 14.22718893,
        "meta_eccentricity": 0.0001859,
        "meta_inclination": 98.7395,
        "meta_ra_of_asc_node": 228.8344,
        "meta_arg_of_pericenter": 94.4675,
        "meta_mean_anomaly": 265.6715,
        "meta_ephemeris_type": 0,
        "meta_classification_type": "U",
        "meta_norad_cat_id": 61736,
        "meta_element_set_no": 999,
        "meta_rev_at_epoch": 10608,
        "meta_bstar": 4.6856e-05,
        "meta_mean_motion_dot": 6.1e-07,
        "meta_mean_motion_ddot": 0,
        "tle_line1": "1 61736U 24199B   25359.16968677  .00000061  00000+0  46856-4 0  9991",
        "tle_line2": "2 61736  98.7395 228.8344 0001859  94.4675 265.6715 14.22718893106087"
      },
      "geometry": {
        "type": "Point",
        "coordinates": [
          50.376050880472654,
          7.940251117346389
        ]
      }
    },
    {
      "type": "Feature",
      "properties": {
        "norad_id": 63772,
        "name": "BIOMASS",
        "group": "resource",
        "lat": -74.68673765550167,
        "lon": -26.89758227162071,
        "alt_km": 676.9853462935707,
        "timestamp": "2025-12-25T11:37:44.079670+00:00",
        "meta_object_name": "BIOMASS",
        "meta_object_id": "2025-090A",
        "meta_epoch": "2025-12-25T00:38:36.523104",
        "meta_mean_motion": 14.67537569,
        "meta_eccentricity": 0.0001045,
        "meta_inclination": 98.0693,
        "meta_ra_of_asc_node": 183.8574,
        "meta_arg_of_pericenter": 84.1343,
        "meta_mean_anomaly": 275.998,
        "meta_ephemeris_type": 0,
        "meta_classification_type": "U",
        "meta_norad_cat_id": 63772,
        "meta_element_set_no": 999,
        "meta_rev_at_epoch": 3514,
        "meta_bstar": 0.00023519,
        "meta_mean_motion_dot": 1.286e-05,
        "meta_mean_motion_ddot": 0,
        "tle_line1": "1 63772U 25090A   25359.02681161  .00001286  00000+0  23519-3 0  9999",
        "tle_line2": "2 63772  98.0693 183.8574 0001045  84.1343 275.9980 14.67537569 35147"
      },
      "geometry": {
        "type": "Point",
        "coordinates": [
          -26.89758227162071,
          -74.68673765550167
        ]
      }
    }
  ]
}